NORAD_CAT_ID,OBJECT_NAME,OBJECT_TYPE,EPOCH,MEAN_MOTION,ECCENTRICITY,INCLINATION,RA_OF_ASC_NODE,ARG_OF_PERICENTER,MEAN_ANOMALY,BSTAR,MEAN_MOTION_DOT,MEAN_MOTION_DDOT,TLE_LINE0,TLE_LINE1,TLE_LINE2,SEMIMAJOR_AXIS,PERIOD,APOGEE,PERIGEE,DECAYED
56817.0,STARLINK-5982,PAYLOAD,2023-09-03 10:19:48,15.6991662,0.0003191,69.9978,145.7506,271.4772,88.6059,-3.9479e-06,-6.87e-06,0.0,0 STARLINK-5982,1 56817U 23078BC  23246.43041670 -.00000687  00000-0 -39479-5 0  9999,2 56817  69.9978 145.7506 0003191 271.4772  88.6059 15.69916620 15242,6737.273,91.725,361.287,356.988,0.0
56817.0,STARLINK-5982,PAYLOAD,2023-09-04 04:40:48,15.69965795,0.0003653,69.9989,143.6016,277.5785,82.4996,-6.8917e-05,-8.506e-05,0.0,0 STARLINK-5982,1 56817U 23078BC  23247.19500533 -.00008506  00000-0 -68917-4 0  9997,2 56817  69.9989 143.6016 0003653 277.5785  82.4996 15.69965795 15363,6737.132,91.722,361.458,356.536,0.0
56817.0,STARLINK-5982,PAYLOAD,2023-09-04 10:47:49,15.69920917,0.0002657,69.9974,142.8844,277.223,82.8664,2.0922e-05,2.303e-05,0.0,0 STARLINK-5982,1 56817U 23078BC  23247.44988178  .00002303  00000-0  20922-4 0  9991,2 56817  69.9974 142.8844 0002657 277.2230  82.8664 15.69920917 15141,6737.26,91.724,360.915,357.335,0.0
56817.0,STARLINK-5982,PAYLOAD,2023-09-05 02:05:21,15.69913245,0.0006098,69.9975,141.0936,270.3046,89.7451,-9.3244e-06,-1.336e-05,0.0,0 STARLINK-5982,1 56817U 23078BC  23248.08704934 -.00001336  00000-0 -93244-5 0  9993,2 56817  69.9975 141.0936 0006098 270.3046  89.7451 15.69913245 15503,6737.282,91.725,363.256,355.039,0.0
56817.0,STARLINK-5982,PAYLOAD,2023-09-05 03:38:14,15.6910068,0.0003167,69.9984,140.9171,260.8979,99.1858,-0.00087386,-0.00100564,0.0,0 STARLINK-5982,1 56817U 23078BC  23248.15155959 -.00100564  00000-0 -87386-3 0  9999,2 56817  69.9984 140.9171 0003167 260.8979  99.1858 15.69100680 15513,6739.608,91.772,363.607,359.339,0.0
56817.0,STARLINK-5982,PAYLOAD,2023-09-07 12:00:00,15.63827909,0.0003431,69.9983,134.3477,261.8103,17.7494,-0.0099934,-0.00860838,0.0,0 STARLINK-5982,1 56817U 23078BC  23250.50001157 -.00860838  00000-0 -99934-2 0  9999,2 56817  69.9983 134.3477 0003431 261.8103  17.7494 15.63827909 15888,6754.749,92.082,378.931,374.296,0.0
56817.0,STARLINK-5982,PAYLOAD,2023-09-07 14:00:01,15.63664867,0.0003521,69.9982,134.1157,262.7982,125.7487,-0.0099178,-0.00837838,0.0,0 STARLINK-5982,1 56817U 23078BC  23250.58334491 -.00837838  00000-0 -99178-2 0  9991,2 56817  69.9982 134.1157 0003521 262.7982 125.7487 15.63664867  6047,6755.218,92.091,379.462,374.705,0.0
56817.0,STARLINK-5982,PAYLOAD,2023-09-07 22:00:00,15.63053002,0.0003494,69.9982,133.1878,267.1456,196.871,-0.011166,-0.00926539,0.0,0 STARLINK-5982,1 56817U 23078BC  23250.91667824 -.00926539  00000-0 -11166-1 0  9994,2 56817  69.9982 133.1878 0003494 267.1456 196.8710 15.63053002  6096,6756.981,92.127,381.207,376.485,0.0
56817.0,STARLINK-5982,PAYLOAD,2023-09-08 12:00:00,15.61864915,0.0003447,69.998,131.5655,262.4577,241.7703,-0.010622,-0.0084828,0.0,0 STARLINK-5982,1 56817U 23078BC  23251.50001157 -.00848280  00000-0 -10622-1 0  9993,2 56817  69.9980 131.5655 0003447 262.4577 241.7703 15.61864915 16037,6760.407,92.197,384.603,379.942,0.0
56817.0,STARLINK-5982,PAYLOAD,2023-09-08 14:00:01,15.6171502,0.0003549,69.998,131.334,259.4177,353.2062,-0.010842,-0.00859814,0.0,0 STARLINK-5982,1 56817U 23078BC  23251.58334491 -.00859814  00000-0 -10842-1 0  9990,2 56817  69.9980 131.3340 0003549 259.4177 353.2062 15.61715020  6039,6760.84,92.206,385.104,380.305,0.0
56817.0,STARLINK-5982,PAYLOAD,2023-09-08 20:00:01,15.61275696,0.000348,69.9985,130.6398,262.2205,315.3117,-0.012241,-0.00945726,0.0,0 STARLINK-5982,1 56817U 23078BC  23251.83334491 -.00945726  00000-0 -12241-1 0  9991,2 56817  69.9985 130.6398 0003480 262.2205 315.3117 15.61275696 16083,6762.108,92.232,386.326,381.62,0.0
56817.0,STARLINK-5982,PAYLOAD,2023-09-08 22:00:00,15.61095071,0.0003617,69.9983,130.4085,263.9659,61.7836,-0.012005,-0.00923272,0.0,0 STARLINK-5982,1 56817U 23078BC  23251.91667824 -.00923272  00000-0 -12005-1 0  9999,2 56817  69.9983 130.4085 0003617 263.9659  61.7836 15.61095071  5866,6762.63,92.243,386.941,382.049,0.0
56817.0,STARLINK-5982,PAYLOAD,2023-09-09 12:00:00,15.5990665,0.000354,69.9983,128.7913,260.524,101.3311,-0.011438,-0.00847073,0.0,0 STARLINK-5982,1 56817U 23078BC  23252.50001157 -.00847073  00000-0 -11438-1 0  9999,2 56817  69.9983 128.7913 0003540 260.5240 101.3311 15.59906650 16198,6766.064,92.313,390.324,385.534,0.0
56817.0,STARLINK-5982,PAYLOAD,2023-09-09 14:00:01,15.59758164,0.0003399,69.9983,128.5606,261.0395,208.6238,-0.011691,-0.00859709,0.0,0 STARLINK-5982,1 56817U 23078BC  23252.58334491 -.00859709  00000-0 -11691-1 0  9997,2 56817  69.9983 128.5606 0003399 261.0395 208.6238 15.59758164  5972,6766.493,92.322,390.658,386.058,0.0
56817.0,STARLINK-5982,PAYLOAD,2023-09-09 20:00:01,15.59314229,0.0003509,69.9983,127.8686,263.9405,168.873,-0.013118,-0.00940389,0.0,0 STARLINK-5982,1 56817U 23078BC  23252.83334491 -.00940389  00000-0 -13118-1 0  9996,2 56817  69.9983 127.8686 0003509 263.9405 168.8730 15.59314229 16244,6767.778,92.348,392.017,387.268,0.0
56817.0,STARLINK-5982,PAYLOAD,2023-09-10 12:00:00,15.57954115,0.000338,69.9981,126.0251,260.4364,312.0025,-0.012381,-0.00850931,0.0,0 STARLINK-5982,1 56817U 23078BC  23253.50001157 -.00850931  00000-0 -12381-1 0  9995,2 56817  69.9981 126.0251 0003380 260.4364 312.0025 15.57954115 16347,6771.716,92.429,395.87,391.292,0.0
56817.0,STARLINK-5982,PAYLOAD,2023-09-10 14:00:01,15.57806411,0.000349,69.9981,125.7952,260.3561,59.3052,-0.012727,-0.00868291,0.0,0 STARLINK-5982,1 56817U 23078BC  23253.58334491 -.00868291  00000-0 -12727-1 0  9995,2 56817  69.9981 125.7952 0003490 260.3561  59.3052 15.57806411  5895,6772.144,92.438,396.372,391.646,0.0
56817.0,STARLINK-5982,PAYLOAD,2023-09-10 20:00:01,15.57351235,0.0003458,69.9985,125.105,263.8881,17.2314,-0.013922,-0.00927778,0.0,0 STARLINK-5982,1 56817U 23078BC  23253.83335648 -.00927778  00000-0 -13922-1 0  9992,2 56817  69.9985 125.1050 0003458 263.8881  17.2314 15.57351235 16401,6773.463,92.465,397.671,392.986,0.0
56817.0,STARLINK-5982,PAYLOAD,2023-09-11 14:00:01,15.55852922,0.00033,69.998,123.0377,262.0371,260.5813,-0.013738,-0.00870938,0.0,0 STARLINK-5982,1 56817U 23078BC  23254.58334491 -.00870938  00000-0 -13738-1 0  9990,2 56817  69.9980 123.0377 0003300 262.0371 260.5813 15.55852922  5969,6777.811,92.554,401.913,397.44,0.0
56817.0,STARLINK-5982,PAYLOAD,2023-09-12 04:00:00,15.54733101,0.0003223,69.9975,121.4328,268.9036,278.8551,-0.01509,-0.00913642,0.0,0 STARLINK-5982,1 56817U 23078BC  23255.16667824 -.00913642  00000-0 -15090-1 0  9997,2 56817  69.9975 121.4328 0003223 268.9036 278.8551 15.54733101 16608,6781.066,92.62,405.116,400.745,0.0
56817.0,STARLINK-5982,PAYLOAD,2023-09-12 14:00:01,15.53897522,0.0003483,69.998,120.2884,262.5334,96.068,-0.014805,-0.0087321,0.0,0 STARLINK-5982,1 56817U 23078BC  23255.58335648 -.00873210  00000-0 -14805-1 0  9998,2 56817  69.9980 120.2884 0003483 262.5334  96.0680 15.53897522  5964,6783.496,92.67,407.724,402.999,0.0
56817.0,STARLINK-5982,PAYLOAD,2023-09-12 22:00:00,15.53257972,0.0003454,69.9978,119.3738,268.9282,153.3532,-0.015785,-0.00906293,0.0,0 STARLINK-5982,1 56817U 23078BC  23255.91667824 -.00906293  00000-0 -15785-1 0  9995,2 56817  69.9978 119.3738 0003454 268.9282 153.3532 15.53257972  6017,6785.358,92.708,409.567,404.88,0.0
56817.0,STARLINK-5982,PAYLOAD,2023-09-13 04:00:00,15.52780591,0.000354,69.9973,118.6882,269.7053,109.8628,-0.016329,-0.00920063,0.0,0 STARLINK-5982,1 56817U 23078BC  23256.16667824 -.00920063  00000-0 -16329-1 0  9999,2 56817  69.9973 118.6882 0003540 269.7053 109.8628 15.52780591 16767,6786.749,92.737,411.016,406.211,0.0
56817.0,STARLINK-5982,PAYLOAD,2023-09-13 14:00:01,15.51897372,0.0003285,69.9976,117.5468,262.1214,285.3001,-0.013903,-0.00770992,0.0,0 STARLINK-5982,1 56817U 23078BC  23256.58334491 -.00770992  00000-0 -13903-1 0  9995,2 56817  69.9976 117.5468 0003285 262.1214 285.3001 15.51897372  6051,6789.324,92.79,413.419,408.958,0.0
56817.0,STARLINK-5982,PAYLOAD,2023-09-13 20:00:01,15.51305829,0.0003303,69.9978,116.8626,266.2377,237.3142,-0.0023655,-0.00137135,0.0,0 STARLINK-5982,1 56817U 23078BC  23256.83334491 -.00137135  00000-0 -23655-2 0  9995,2 56817  69.9978 116.8626 0003303 266.2377 237.3142 15.51305829 16861,6791.049,92.825,415.158,410.671,0.0
56817.0,STARLINK-5982,PAYLOAD,2023-09-13 22:00:00,15.51224458,0.000318,69.9979,116.6347,268.3846,340.4339,-9.9793e-05,-6.022e-05,0.0,0 STARLINK-5982,1 56817U 23078BC  23256.91667824 -.00006022  00000-0 -99793-4 0  9991,2 56817  69.9979 116.6347 0003180 268.3846 340.4339 15.51224458  5968,6791.287,92.83,415.312,410.992,0.0
56817.0,STARLINK-5982,PAYLOAD,2023-09-14 04:00:00,15.51241358,0.0003062,69.9977,115.951,269.4012,295.0946,-0.00063673,-0.00037411,0.0,0 STARLINK-5982,1 56817U 23078BC  23257.16667824 -.00037411  00000-0 -63673-3 0  9992,2 56817  69.9977 115.9510 0003062 269.4012 295.0946 15.51241358 16921,6791.238,92.829,415.182,411.023,0.0
56817.0,STARLINK-5982,PAYLOAD,2023-09-14 14:00:01,15.51222854,0.0003064,69.9989,114.8119,263.8732,106.8279,0.00037042,0.00021651,0.0,0 STARLINK-5982,1 56817U 23078BC  23257.58335648  .00021651  00000-0  37042-3 0  9992,2 56817  69.9989 114.8119 0003064 263.8732 106.8279 15.51222854  5966,6791.292,92.83,415.237,411.076,0.0
56817.0,STARLINK-5982,PAYLOAD,2023-09-14 20:00:01,15.51235807,0.0003076,69.9985,114.1282,268.8447,57.4808,-0.00039157,-0.00023107,0.0,0 STARLINK-5982,1 56817U 23078BC  23257.83334491 -.00023107  00000-0 -39157-3 0  9994,2 56817  69.9985 114.1282 0003076 268.8447  57.4808 15.51235807 17028,6791.254,92.829,415.208,411.03,0.0
56817.0,STARLINK-5982,PAYLOAD,2023-09-14 22:00:00,15.51219627,0.0003042,69.9987,113.9004,271.0145,160.5451,0.00016837,9.735e-05,0.0,0 STARLINK-5982,1 56817U 23078BC  23257.91667824  .00009735  00000-0  16837-3 0  9991,2 56817  69.9987 113.9004 0003042 271.0145 160.5451 15.51219627  6023,6791.301,92.83,415.232,411.1,0.0
